LILACSAT-2
1 40908U 15049K   17102.75026827  .00000561  00000-0  35276-4 0  9997
2 40908 097.4628 109.1680 0017913 078.4331 281.8910 15.13029915086279
XW-2F
1 40910U 15049M   17102.79040346  .00001494  00000-0  82579-4 0  9990
2 40910 097.4549 109.9530 0017321 078.7449 281.5728 15.15297277086254
XW-2B
1 40911U 15049N   17102.82211057  .00000977  00000-0  56562-4 0  9992
2 40911 097.4570 109.7451 0016335 080.8105 279.4974 15.14450701086246
DCBB
1 40912U 15049P   17102.87180932  .00002092  00000-0  10773-3 0  9998
2 40912 097.4519 111.6844 0017690 071.6813 013.2047 15.17374106086384
TW-1C
1 40926U 15051B   17102.79423377  .00008876  00000-0  21205-3 0  9998
2 40926 097.2378 142.8798 0013490 054.0331 035.0396 15.41644531086847
TW-1A
1 40928U 15051D   17102.80456086  .00004471  00000-0  13119-3 0  9997
2 40928 097.2342 139.7899 0014779 075.3165 012.2206 15.35569770086660
IO-86
1 40931U 15052B   17102.31873150  .00000705  00000-0  91331-5 0  9993
2 40931 005.9996 342.3663 0013630 029.3386 330.7738 14.76520262083218
GomX-3
1 40949U 98067HA  16292.18357804  .08527750  12374-4  77882-3 0  9992
2 40949  51.6055 106.7696 0006699 286.1344  73.8944 16.38002265 59645
LQSat
1 40958U 15057A   17102.83001225  .00000046  00000-0  15054-4 0  9995
2 40958 097.9810 179.2770 0016874 277.0642 082.8632 14.72954472081495
AO-85
1 40967U 15058D   17103.09833289  .00000275  00000-0  51154-4 0 04527
2 40967 064.7766 056.3001 0172661 102.1569 259.8927 14.75369887067515
ATHENOXAT-1
1 41168U 15077C   17102.74198138  .00002883  00000-0  12700-3 0  9996
2 41168 014.9894 287.4516 0012586 191.9854 275.5060 15.11348182073121
ChubuSat-2
1 41338U 16012B   17102.59396583  .00000447  00000-0  28463-4 0  9990
2 41338 031.0025 168.8329 0013892 130.2644 229.9207 14.99693414063136
ChubuSat-3
1 41339U 16012C   17102.53122825  .00000468  00000-0  30022-4 0  9998
2 41339 031.0098 168.4817 0013381 135.7859 224.3848 14.99902692063104
Horyu-4
1 41340U 16012D   17102.53269349  .00000664  00000-0  44595-4 0  9991
2 41340 031.0045 166.3957 0014190 143.6963 216.4637 15.00516108063141
OUFTI-1
1 41458U 16025C   17102.93634648  .00001552  00000-0  86950-4 0  9995
2 41458 098.1920 136.7733 0176721 147.0287 214.2108 15.02828170052780
e-st at r-II
1 41459U 16025D   17102.88437082  .00001912  00000-0  10592-3 0  9991
2 41459 098.1949 136.6794 0177852 147.6206 213.6086 15.02709089052764
AAUSAT4
1 41460U 16025E   17102.85149742  .00002950  00000-0  16250-3 0  9993
2 41460 098.1821 136.7084 0169320 146.4487 214.7601 15.03447164052777
MinXSS
1 41474U 98067HU  17102.84510117  .00213949  28486-4  60131-3 0  9992
2 41474 051.6456 330.3704 0005359 232.4481 127.6040 15.93110095051982
CADRE
1 41475U 98067HV  17003.74787607  .12518598  12537-4  55989-3 0  9998
2 41475  51.6110 110.0165 0004040 312.3134  47.7551 16.43344525 36494
NODES 1
1 41477U 98067HX  17102.74499728  .00042566  00000-0  28553-3 0  9993
2 41477 051.6332 341.6427 0003674 180.3999 179.6998 15.74780554051732
NODES 2
1 41478U 98067HY  17102.83297042  .00043155  00000-0  29328-3 0  9995
2 41478 051.6345 341.4809 0003594 178.0450 182.0564 15.74472615051740
LO-87
1 41557U 16033B   17102.80827009  .00001746  00000-0  69070-4 0  9994
2 41557 097.4658 182.3269 0013107 233.8991 126.1035 15.26780169048455
NuSat2
1 41558U 16033C   17102.77036890  .00001677  00000-0  66681-4 0  9999
2 41558 097.4687 182.3316 0012617 232.5671 127.4421 15.26657136048446
Lapan A3
1 41603U 16040E   17102.84910697  .00000260  00000-0  15586-4 0  9997
2 41603 097.4684 165.5879 0012204 307.1756 182.0782 15.19305155044734
Swayam
1 41607U 16040J   17102.72118404  .00001893  00000-0  89720-4 0  9998
2 41607 097.4667 165.6329 0012997 309.2780 050.7301 15.20485276044653
Pratham
1 41783U 16059A   17102.76922654  .00000092  00000-0  27489-4 0  9991
2 41783 098.1737 164.7957 0033715 008.3768 351.7989 14.62820934029035
AlSat 1N
1 41789U 16059G   17102.81173694  .00000135  00000-0  34951-4 0  9995
2 41789 098.1739 165.2134 0028385 003.4732 356.6651 14.64027753029041
ScatSat
1 41790U 16059H   17102.78136711  .00000034  00000-0  19520-4 0  9995
2 41790 098.0728 155.5707 0010977 356.1214 003.9894 14.50101453028785
TY-1
1 41844U 16066D   17102.86599737  .00001406  00000-0  64673-4 0  9996
2 41844 097.4058 111.0140 0017908 105.1299 015.2622 15.21856590023405
CAS-2T
1 41845U 16066E   17102.90943568 -.00000066  00000-0  00000-0 0  9999
2 41845 098.7806 116.9723 0368038 081.9959 282.2816 14.37721573022115
Pegasus-1
1 41846U 16066F   17102.72025943 -.00000066  00000-0  00000-0 0  9998
2 41846 098.7835 116.6250 0370639 083.6217 280.7085 14.36932174022072
STARS-C
1 41895U 98067KR  17102.74603824  .00018118  00000-0  23898-3 0  9994
2 41895 051.6412 002.7933 0005881 081.6750 278.4909 15.58452488017772
Tancredo 1
1 41931U 98067KT  17102.75892451  .00037536  00000-0  43530-3 0  9992
2 41931 051.6399 002.1230 0006806 046.6095 313.5465 15.61392025013354
ITF-2
1 41932U 98067KU  17102.73349762  .00014021  00000-0  19445-3 0  9995
2 41932 051.6417 003.4610 0006204 036.5243 323.6171 15.57329213013335
AOBA-V3LOX3
1 41935U 98067KX  17102.79733252  .00014955  00000-0  20604-3 0  9990
2 41935 051.6415 003.1366 0005723 041.8609 318.2820 15.57448543013442
OSNSAT
1 41939U 98067KZ  17102.73580477  .00026214  00000-0  32753-3 0  9996
2 41939 051.6406 002.7212 0007315 041.7815 318.3735 15.59627107012697
EO-88
1 42017U 17008BX  17102.79141773  .00001979  00000-0  87984-4 0  9996
2 42017 097.5016 164.3616 0008418 092.0416 268.1784 15.22677115008533
